{"type": "FeatureCollection", "features": [ {"type": "Feature", "properties": {"norad_id": 45358, "name": "COSMOS 2545 (760)", "group": "gnss", "lat": 12.27850923909674, "lon": 133.1388109703314, "alt_km": 19124.955678432103, "timestamp": "2025-12-08T10:52:03.190604+00:00", "meta": {"OBJECT_NAME": "COSMOS 2545 (760)", "OBJECT_ID": "2020-018A", "EPOCH": "2025-12-07T07:07:55.705728", "MEAN_MOTION": 2.13102386, "ECCENTRICITY": 0.00117441, "INCLINATION": 64.4728, "RA_OF_ASC_NODE": 319.1607, "ARG_OF_PERICENTER": 249.0045, "MEAN_ANOMALY": 110.8633, "EPHEMERIS_TYPE": 0, "CLASSIFICATION_TYPE": "U", "NORAD_CAT_ID": 45358, "ELEMENT_SET_NO": 999, "REV_AT_EPOCH": 4457, "BSTAR": 0, "MEAN_MOTION_DOT": -5e-07, "MEAN_MOTION_DDOT": 0}, "tle": {"line1": "1 45358U 20018A   25341.29717252 -.00000050  00000+0  00000+0 0  9990", "line2": "2 45358  64.4728 319.1607 0011744 249.0045 110.8633  2.13102386 44574"}}, "geometry": {"type": "Point", "coordinates": [133.1388109703314, 12.27850923909674]}}, {"type": "Feature", "properties": {"norad_id": 45807, "name": "BEIDOU-3 G3 (C61)", "group": "gnss", "lat": -1.9161914195449605, "lon": -9.042041611283972, "alt_km": 35761.89677054014, "timestamp": "2025-12-08T10:52:03.190624+00:00", "meta": {"OBJECT_NAME": "BEIDOU-3 G3 (C61)", "OBJECT_ID": "2020-040A", "EPOCH": "2025-12-07T22:43:12.465984", "MEAN_MOTION": 1.0027613, "ECCENTRICITY": 0.00059824, "INCLINATION": 1.9793, "RA_OF_ASC_NODE": 66.5774, "ARG_OF_PERICENTER": 306.2701, "MEAN_ANOMALY": 155.4123, "EPHEMERIS_TYPE": 0, "CLASSIFICATION_TYPE": "U", "NORAD_CAT_ID": 45807, "ELEMENT_SET_NO": 999, "REV_AT_EPOCH": 2015, "BSTAR": 0, "MEAN_MOTION_DOT": -3.51e-06, "MEAN_MOTION_DDOT": 0}, "tle": {"line1": "1 45807U 20040A   25341.94667206 -.00000351  00000+0  00000+0 0  9993", "line2": "2 45807   1.9793  66.5774 0005982 306.2701 155.4123  1.00276130 20152"}}, "geometry": {"type": "Point", "coordinates": [-9.042041611283972, -1.9161914195449605]}}, {"type": "Feature", "properties": {"norad_id": 45854, "name": "GPS BIII-3  (PRN 23)", "group": "gnss", "lat": 40.800217270006556, "lon": -178.39933014601309, "alt_km": 20134.75819382512, "timestamp": "2025-12-08T10:52:03.190640+00:00", "meta": {"OBJECT_NAME": "GPS BIII-3  (PRN 23)", "OBJECT_ID": "2020-041A", "EPOCH": "2025-12-07T06:57:27.444672", "MEAN_MOTION": 2.00561718, "ECCENTRICITY": 0.00603563, "INCLINATION": 56.5433, "RA_OF_ASC_NODE": 36.3977, "ARG_OF_PERICENTER": 203.2104, "MEAN_ANOMALY": 166.2515, "EPHEMERIS_TYPE": 0, "CLASSIFICATION_TYPE": "U", "NORAD_CAT_ID": 45854, "ELEMENT_SET_NO": 999, "REV_AT_EPOCH": 4019, "BSTAR": 0, "MEAN_MOTION_DOT": -7.4e-07, "MEAN_MOTION_DDOT": 0}, "tle": {"line1": "1 45854U 20041A   25341.28990098 -.00000074  00000+0  00000+0 0  9993", "line2": "2 45854  56.5433  36.3977 0060356 203.2104 166.2515  2.00561718 40191"}}, "geometry": {"type": "Point", "coordinates": [-178.39933014601309, 40.800217270006556]}}, {"type": "Feature", "properties": {"norad_id": 46114, "name": "GALAXY 30 (WAAS/PRN 135)", "group": "gnss", "lat": 0.028720269836568224, "lon": 115.44492187442441, "alt_km": 35794.29060541621, "timestamp": "2025-12-08T10:52:03.190652+00:00", "meta": {"OBJECT_NAME": "GALAXY 30 (WAAS/PRN 135)", "OBJECT_ID": "2020-056C", "EPOCH": "2025-12-07T16:27:51.213024", "MEAN_MOTION": 1.00270815, "ECCENTRICITY": 0.00024466, "INCLINATION": 0.0172, "RA_OF_ASC_NODE": 342.6462, "ARG_OF_PERICENTER": 273.2329, "MEAN_ANOMALY": 302.7854, "EPHEMERIS_TYPE": 0, "CLASSIFICATION_TYPE": "U", "NORAD_CAT_ID": 46114, "ELEMENT_SET_NO": 999, "REV_AT_EPOCH": 1937, "BSTAR": 0, "MEAN_MOTION_DOT": 4e-07, "MEAN_MOTION_DDOT": 0}, "tle": {"line1": "1 46114U 20056C   25341.68600941  .00000040  00000+0  00000+0 0  9990", "line2": "2 46114   0.0172 342.6462 0002446 273.2329 302.7854  1.00270815 19372"}}, "geometry": {"type": "Point", "coordinates": [115.44492187442441, 0.028720269836568224]}}, {"type": "Feature", "properties": {"norad_id": 46805, "name": "COSMOS 2547 (705K)", "group": "gnss", "lat": 20.02189731357157, "lon": -151.1831170452822, "alt_km": 19142.155824921836, "timestamp": "2025-12-08T10:52:03.190667+00:00", "meta": {"OBJECT_NAME": "COSMOS 2547 (705K)", "OBJECT_ID": "2020-075A", "EPOCH": "2025-12-07T11:38:43.890144", "MEAN_MOTION": 2.13099936, "ECCENTRICITY": 0.00062259, "INCLINATION": 64.5959, "RA_OF_ASC_NODE": 198.872, "ARG_OF_PERICENTER": 228.8707, "MEAN_ANOMALY": 131.1578, "EPHEMERIS_TYPE": 0, "CLASSIFICATION_TYPE": "U", "NORAD_CAT_ID": 46805, "ELEMENT_SET_NO": 999, "REV_AT_EPOCH": 3982, "BSTAR": 0, "MEAN_MOTION_DOT": 5.8e-07, "MEAN_MOTION_DDOT": 0}, "tle": {"line1": "1 46805U 20075A   25341.48523021  .00000058  00000+0  00000+0 0  9998", "line2": "2 46805  64.5959 198.8720 0006225 228.8707 131.1578  2.13099936 39827"}}, "geometry": {"type": "Point", "coordinates": [-151.1831170452822, 20.02189731357157]}}, {"type": "Feature", "properties": {"norad_id": 46826, "name": "GPS BIII-4  (PRN 14)", "group": "gnss", "lat": 53.00502224946813, "lon": -36.0066846513242, "alt_km": 20218.69740004048, "timestamp": "2025-12-08T10:52:03.190679+00:00", "meta": {"OBJECT_NAME": "GPS BIII-4  (PRN 14)", "OBJECT_ID": "2020-078A", "EPOCH": "2025-11-12T03:01:29.191584", "MEAN_MOTION": 2.00567032, "ECCENTRICITY": 0.00639112, "INCLINATION": 54.0223, "RA_OF_ASC_NODE": 219.5836, "ARG_OF_PERICENTER": 203.4986, "MEAN_ANOMALY": 326.7753, "EPHEMERIS_TYPE": 0, "CLASSIFICATION_TYPE": "U", "NORAD_CAT_ID": 46826, "ELEMENT_SET_NO": 999, "REV_AT_EPOCH": 3715, "BSTAR": 0, "MEAN_MOTION_DOT": -3.4e-07, "MEAN_MOTION_DDOT": 0}, "tle": {"line1": "1 46826U 20078A   25316.12603231 -.00000034  00000+0  00000+0 0  9994", "line2": "2 46826  54.0223 219.5836 0063911 203.4986 326.7753  2.00567032 37154"}}, "geometry": {"type": "Point", "coordinates": [-36.0066846513242, 53.00502224946813]}}, {"type": "Feature", "properties": {"norad_id": 48859, "name": "GPS BIII-5  (PRN 11)", "group": "gnss", "lat": -52.233200854995054, "lon": -83.47511045067534, "alt_km": 20148.842262029808, "timestamp": "2025-12-08T10:52:03.190690+00:00", "meta": {"OBJECT_NAME": "GPS BIII-5  (PRN 11)", "OBJECT_ID": "2021-054A", "EPOCH": "2025-11-30T17:12:22.002912", "MEAN_MOTION": 2.00553932, "ECCENTRICITY": 0.0024653, "INCLINATION": 55.2606, "RA_OF_ASC_NODE": 340.4377, "ARG_OF_PERICENTER": 232.9477, "MEAN_ANOMALY": 227.2059, "EPHEMERIS_TYPE": 0, "CLASSIFICATION_TYPE": "U", "NORAD_CAT_ID": 48859, "ELEMENT_SET_NO": 999, "REV_AT_EPOCH": 3277, "BSTAR": 0, "MEAN_MOTION_DOT": -5.5e-07, "MEAN_MOTION_DDOT": 0}, "tle": {"line1": "1 48859U 21054A   25334.71692133 -.00000055  00000+0  00000+0 0  9994", "line2": "2 48859  55.2606 340.4377 0024653 232.9477 227.2059  2.00553932 32777"}}, "geometry": {"type": "Point", "coordinates": [-83.47511045067534, -52.233200854995054]}}, {"type": "Feature", "properties": {"norad_id": 49336, "name": "QZS-1R (QZSS/PRN 196)", "group": "gnss", "lat": -32.62472533449834, "lon": 24.567219882826727, "alt_km": 32892.485478045484, "timestamp": "2025-12-08T10:52:03.190702+00:00", "meta": {"OBJECT_NAME": "QZS-1R (QZSS/PRN 196)", "OBJECT_ID": "2021-096A", "EPOCH": "2025-12-05T14:57:38.876832", "MEAN_MOTION": 1.00259301, "ECCENTRICITY": 0.07539341, "INCLINATION": 37.062, "RA_OF_ASC_NODE": 82.4658, "ARG_OF_PERICENTER": 271.1853, "MEAN_ANOMALY": 80.5969, "EPHEMERIS_TYPE": 0, "CLASSIFICATION_TYPE": "U", "NORAD_CAT_ID": 49336, "ELEMENT_SET_NO": 999, "REV_AT_EPOCH": 1507, "BSTAR": 0, "MEAN_MOTION_DOT": -2.6e-06, "MEAN_MOTION_DDOT": 0}, "tle": {"line1": "1 49336U 21096A   25339.62336663 -.00000260  00000+0  00000+0 0  9997", "line2": "2 49336  37.0620  82.4658 0753934 271.1853  80.5969  1.00259301 15077"}}, "geometry": {"type": "Point", "coordinates": [24.567219882826727, -32.62472533449834]}}, {"type": "Feature", "properties": {"norad_id": 49809, "name": "GSAT0223 (GALILEO 27)", "group": "gnss", "lat": 47.94885642725535, "lon": 32.42540596825996, "alt_km": 23230.151726151635, "timestamp": "2025-12-08T10:52:03.190714+00:00", "meta": {"OBJECT_NAME": "GSAT0223 (GALILEO 27)", "OBJECT_ID": "2021-116A", "EPOCH": "2025-12-07T10:58:36.115680", "MEAN_MOTION": 1.70475566, "ECCENTRICITY": 0.00047089, "INCLINATION": 57.2204, "RA_OF_ASC_NODE": 346.8553, "ARG_OF_PERICENTER": 250.7746, "MEAN_ANOMALY": 280.3454, "EPHEMERIS_TYPE": 0, "CLASSIFICATION_TYPE": "U", "NORAD_CAT_ID": 49809, "ELEMENT_SET_NO": 999, "REV_AT_EPOCH": 2491, "BSTAR": 0, "MEAN_MOTION_DOT": -8.4e-07, "MEAN_MOTION_DDOT": 0}, "tle": {"line1": "1 49809U 21116A   25341.45736245 -.00000084  00000+0  00000+0 0  9993", "line2": "2 49809  57.2204 346.8553 0004708 250.7746 280.3454  1.70475566 24919"}}, "geometry": {"type": "Point", "coordinates": [32.42540596825996, 47.94885642725535]}}, {"type": "Feature", "properties": {"norad_id": 49810, "name": "GSAT0224 (GALILEO 28)", "group": "gnss", "lat": 4.513990929416502, "lon": 163.90895203482822, "alt_km": 23219.6410723455, "timestamp": "2025-12-08T10:52:03.190726+00:00", "meta": {"OBJECT_NAME": "GSAT0224 (GALILEO 28)", "OBJECT_ID": "2021-116B", "EPOCH": "2025-12-07T13:56:35.698272", "MEAN_MOTION": 1.7047563, "ECCENTRICITY": 0.00040182, "INCLINATION": 57.2213, "RA_OF_ASC_NODE": 346.8506, "ARG_OF_PERICENTER": 254.5241, "MEAN_ANOMALY": 105.0474, "EPHEMERIS_TYPE": 0, "CLASSIFICATION_TYPE": "U", "NORAD_CAT_ID": 49810, "ELEMENT_SET_NO": 999, "REV_AT_EPOCH": 2493, "BSTAR": 0, "MEAN_MOTION_DOT": -8.4e-07, "MEAN_MOTION_DDOT": 0}, "tle": {"line1": "1 49810U 21116B   25341.58096873 -.00000084  00000+0  00000+0 0  9995", "line2": "2 49810  57.2213 346.8506 0004018 254.5241 105.0474  1.70475630 24934"}}, "geometry": {"type": "Point", "coordinates": [163.90895203482822, 4.513990929416502]}}]}